NORAD_CAT_ID,OBJECT_NAME,OBJECT_TYPE,EPOCH,MEAN_MOTION,ECCENTRICITY,INCLINATION,RA_OF_ASC_NODE,ARG_OF_PERICENTER,MEAN_ANOMALY,BSTAR,MEAN_MOTION_DOT,MEAN_MOTION_DDOT,TLE_LINE0,TLE_LINE1,TLE_LINE2,SEMIMAJOR_AXIS,PERIOD,APOGEE,PERIGEE,DECAYED
53914.0,STARLINK-5040,PAYLOAD,2022-10-09 12:00:00,15.73250977,9.87e-05,53.2188,181.0427,86.8423,41.4804,3.3898e-06,-1.43e-06,0.0,0 STARLINK-5040,1 53914U 22119AE  22282.50001157 -.00000143  00000-0  33898-5 0  9997,2 53914  53.2188 181.0427 0000987  86.8423  41.4804 15.73250977  2727,6727.75,91.53,350.279,348.951,0.0
53914.0,STARLINK-5040,PAYLOAD,2022-10-09 14:00:01,15.73251558,9.7e-05,53.2187,180.6299,89.3558,151.2145,-8.7627e-06,-1.852e-05,0.0,0 STARLINK-5040,1 53914U 22119AE  22282.58334491 -.00001852  00000-0 -87627-5 0  9993,2 53914  53.2187 180.6299 0000970  89.3558 151.2145 15.73251558  1304,6727.748000000001,91.53,350.266,348.961,0.0
53914.0,STARLINK-5040,PAYLOAD,2022-10-09 22:00:00,15.73283988,0.000104,53.2188,178.9816,82.0733,247.4804,-0.00085048,-0.0011872999999999,0.0,0 STARLINK-5040,1 53914U 22119AE  22282.91667824 -.00118730  00000-0 -85048-3 0  9996,2 53914  53.2188 178.9816 0001040  82.0733 247.4804 15.73283988  1306,6727.656,91.528,350.22,348.821,0.0
53914.0,STARLINK-5040,PAYLOAD,2022-10-10 04:00:00,15.73206042,0.0001171999999999,53.2182,177.74200000000005,74.1073,232.1966,-0.00035395,-0.00050012,0.0,0 STARLINK-5040,1 53914U 22119AE  22283.16667824 -.00050012  00000-0 -35395-3 0  9992,2 53914  53.2182 177.7420 0001172  74.1073 232.1966 15.73206042  2827,6727.878000000002,91.533,350.531,348.954,0.0
53914.0,STARLINK-5040,PAYLOAD,2022-10-10 14:00:01,15.73189824,0.0001032,53.2181,175.68,94.2958,53.2643,0.00038017,0.00053048,0.0,0 STARLINK-5040,1 53914U 22119AE  22283.58334491  .00053048  00000-0  38017-3 0  9993,2 53914  53.2181 175.6800 0001032  94.2958  53.2643 15.73189824  2894,6727.924,91.534,350.4840000000001,349.095,0.0
53914.0,STARLINK-5040,PAYLOAD,2022-10-10 20:00:01,15.73343547,0.000126,53.2179,174.4381,92.7842,31.4556,-0.0023138,-0.00315404,0.0,0 STARLINK-5040,1 53914U 22119AE  22283.83334491 -.00315404  00000-0 -23138-2 0  9997,2 53914  53.2179 174.4381 0001260  92.7842  31.4556 15.73343547  2930,6727.486,91.525,350.199,348.50300000000016,0.0
53914.0,STARLINK-5040,PAYLOAD,2022-10-10 22:00:01,15.73353791,0.0001238,53.2178,174.0251,90.8301,145.7206,-0.0033006,-0.00443166,0.0,0 STARLINK-5040,1 53914U 22119AE  22283.91668981 -.00443166  00000-0 -33006-2 0  9992,2 53914  53.2178 174.0251 0001238  90.8301 145.7206 15.73353791  1308,6727.456999999999,91.524,350.155,348.48900000000015,0.0
53914.0,STARLINK-5040,PAYLOAD,2022-10-11 04:00:00,15.73140964,0.0001054999999999,53.2173,172.7934,76.2123,136.8822,0.0001392,0.00018911,0.0,0 STARLINK-5040,1 53914U 22119AE  22284.16667824  .00018911  00000-0  13920-3 0  9993,2 53914  53.2173 172.7934 0001055  76.2123 136.8822 15.73140964  2989,6728.063,91.537,350.63800000000015,349.219,0.0
53914.0,STARLINK-5040,PAYLOAD,2022-10-11 12:00:00,15.73178034,0.0001042,53.2174,171.136,82.1167,219.8377,0.00098,0.00139084,0.0,0 STARLINK-5040,1 53914U 22119AE  22284.50001157  .00139084  00000-0  98000-3 0  9999,2 53914  53.2174 171.1360 0001042  82.1167 219.8377 15.73178034  3039,6727.958000000001,91.534,350.524,349.122,0.0
53914.0,STARLINK-5040,PAYLOAD,2022-10-11 14:00:01,15.73115781,7.659999999999999e-05,53.2175,170.7192,82.1286,332.1552,0.00099919,0.00141482,0.0,0 STARLINK-5040,1 53914U 22119AE  22284.58334491  .00141482  00000-0  99919-3 0  9992,2 53914  53.2175 170.7192 0000766  82.1286 332.1552 15.73115781  1304,6728.135,91.538,350.516,349.485,0.0
53914.0,STARLINK-5040,PAYLOAD,2022-10-11 20:00:01,15.73207639,0.0001139,53.2179,169.4977,88.6302,302.2742,5.9388e-05,7.725e-05,0.0,0 STARLINK-5040,1 53914U 22119AE  22284.83335648  .00007725  00000-0  59388-4 0  9993,2 53914  53.2179 169.4977 0001139  88.6302 302.2742 15.73207639  3090,6727.873000000001,91.533,350.505,348.972,0.0
53914.0,STARLINK-5040,PAYLOAD,2022-10-11 22:00:00,15.73205336,0.0001145,53.2176,169.08599999999996,83.7622,59.3115,0.00013788,0.00018778,0.0,0 STARLINK-5040,1 53914U 22119AE  22284.91667824  .00018778  00000-0  13788-3 0  9999,2 53914  53.2176 169.0860 0001145  83.7622  59.3115 15.73205336  1300,6727.88,91.533,350.515,348.975,0.0
53914.0,STARLINK-5040,PAYLOAD,2022-10-12 04:00:00,15.73161569,0.0001268,53.2176,167.8494,82.5925,37.144,0.00088607,0.00125399,0.0,0 STARLINK-5040,1 53914U 22119AE  22285.16667824  .00125399  00000-0  88607-3 0  9997,2 53914  53.2176 167.8494 0001268  82.5925  37.1440 15.73161569  3146,6728.005,91.535,350.723,349.017,0.0
53914.0,STARLINK-5040,PAYLOAD,2022-10-12 12:00:00,15.73176019,0.0001009,53.2175,166.1896,88.4144,120.278,0.0013323,0.00190463,0.0,0 STARLINK-5040,1 53914U 22119AE  22285.50001157  .00190463  00000-0  13323-2 0  9992,2 53914  53.2175 166.1896 0001009  88.4144 120.2780 15.73176019  3196,6727.964,91.535,350.50699999999995,349.15,0.0
53914.0,STARLINK-5040,PAYLOAD,2022-10-12 14:00:01,15.73215684,0.0001006,53.2173,165.7754,87.986,232.9417,0.00095004,0.00134964,0.0,0 STARLINK-5040,1 53914U 22119AE  22285.58334491  .00134964  00000-0  95004-3 0  9991,2 53914  53.2173 165.7754 0001006  87.9860 232.9417 15.73215684  1309,6727.85,91.532,350.392,349.039,0.0
53914.0,STARLINK-5040,PAYLOAD,2022-10-12 20:00:01,15.73350261,9.85e-05,53.2176,164.5351,80.2701,217.3958,-0.0015847,-0.00218731,0.0,0 STARLINK-5040,1 53914U 22119AE  22285.83334491 -.00218731  00000-0 -15847-2 0  9992,2 53914  53.2176 164.5351 0000985  80.2701 217.3958 15.73350261  3240,6727.467,91.524,349.994,348.6690000000001,0.0
53914.0,STARLINK-5040,PAYLOAD,2022-10-12 22:00:00,15.73238161,9.67e-05,53.2176,164.1218,75.649,334.3125,-0.0004014999999999,-0.00056679,0.0,0 STARLINK-5040,1 53914U 22119AE  22285.91667824 -.00056679  00000-0 -40150-3 0  9997,2 53914  53.2176 164.1218 0000967  75.6490 334.3125 15.73238161  1306,6727.786,91.531,350.302,349.001,0.0
53914.0,STARLINK-5040,PAYLOAD,2022-10-13 04:00:00,15.73204042,9.53e-05,53.2171,162.8833,66.1854,320.4927,1.1877e-05,1.048e-05,0.0,0 STARLINK-5040,1 53914U 22119AE  22286.16667824  .00001048  00000-0  11877-4 0  9998,2 53914  53.2171 162.8833 0000953  66.1854 320.4927 15.73204042  3302,6727.884,91.533,350.39,349.107,0.0
53914.0,STARLINK-5040,PAYLOAD,2022-10-13 14:00:01,15.7302579,0.0001173,53.2168,160.8235,88.2401,139.7151,0.0017539,0.00251152,0.0,0 STARLINK-5040,1 53914U 22119AE  22286.58334491  .00251152  00000-0  17539-2 0  9997,2 53914  53.2168 160.8235 0001173  88.2401 139.7151 15.73025790  1309,6728.392,91.543,351.046,349.468,0.0
53914.0,STARLINK-5040,PAYLOAD,2022-10-13 22:00:00,15.73203962,0.0001315,53.2173,159.1713,83.189,233.5918,3.5026e-06,-1.28e-06,0.0,0 STARLINK-5040,1 53914U 22119AE  22286.91667824 -.00000128  00000-0  35026-5 0  9993,2 53914  53.2173 159.1713 0001315  83.1890 233.5918 15.73203962  1304,6727.884,91.533,350.634,348.86400000000015,0.0
53914.0,STARLINK-5040,PAYLOAD,2022-10-14 06:00:00,15.73266358,0.0001312,53.2168,157.5308,82.9364,322.8075,-0.0012395,-0.00171561,0.0,0 STARLINK-5040,1 53914U 22119AE  22287.25001157 -.00171561  00000-0 -12395-2 0  9994,2 53914  53.2168 157.5308 0001312  82.9364 322.8075 15.73266358  3474,6727.706,91.529,350.454,348.68800000000016,0.0
53914.0,STARLINK-5040,PAYLOAD,2022-10-14 14:00:01,15.73136406,0.0001413,53.2173,155.8733,93.2753,41.407,0.00076164,0.00107353,0.0,0 STARLINK-5040,1 53914U 22119AE  22287.58334491  .00107353  00000-0  76164-3 0  9991,2 53914  53.2173 155.8733 0001413  93.2753  41.4070 15.73136406  3527,6728.076,91.537,350.892,348.991,0.0
53914.0,STARLINK-5040,PAYLOAD,2022-10-14 20:00:01,15.73203459,0.0001415,53.2175,154.6347,88.9498,22.4006,1.1803e-05,1.037e-05,0.0,0 STARLINK-5040,1 53914U 22119AE  22287.83334491  .00001037  00000-0  11803-4 0  9991,2 53914  53.2175 154.6347 0001415  88.9498  22.4006 15.73203459  3561,6727.885,91.533,350.702,348.798,0.0
53914.0,STARLINK-5040,PAYLOAD,2022-10-15 14:00:01,15.73203726,0.0001234,53.2164,150.9401,100.2315,301.3652,9.6786e-05,0.00012986,0.0,0 STARLINK-5040,1 53914U 22119AE  22288.58334491  .00012986  00000-0  96786-4 0  9992,2 53914  53.2164 150.9401 0001234 100.2315 301.3652 15.73203726  3680,6727.885,91.533,350.58,348.9190000000001,0.0
53914.0,STARLINK-5040,PAYLOAD,2022-10-15 20:00:01,15.73213835,0.0001049,53.2166,149.7046,92.8043,285.5503,-0.00043851,-0.00061746,0.0,0 STARLINK-5040,1 53914U 22119AE  22288.83335648 -.00061746  00000-0 -43851-3 0  9999,2 53914  53.2166 149.7046 0001049  92.8043 285.5503 15.73213835  3715,6727.856,91.532,350.426,349.015,0.0
53914.0,STARLINK-5040,PAYLOAD,2022-10-15 22:00:01,15.73205436,0.0001009,53.2165,149.2926,87.8611,42.7259,-0.00041979,-0.00059133,0.0,0 STARLINK-5040,1 53914U 22119AE  22288.91668981 -.00059133  00000-0 -41979-3 0  9993,2 53914  53.2165 149.2926 0001009  87.8611  42.7259 15.73205436  1309,6727.88,91.533,350.4240000000001,349.066,0.0
53914.0,STARLINK-5040,PAYLOAD,2022-10-16 12:00:00,15.73106841,9.33e-05,53.2165,146.4044,97.7998,98.3129,0.00081995,0.00115586,0.0,0 STARLINK-5040,1 53914U 22119AE  22289.50001157  .00115586  00000-0  81995-3 0  9990,2 53914  53.2165 146.4044 0000933  97.7998  98.3129 15.73106841  3824,6728.161,91.539,350.654,349.398,0.0
53914.0,STARLINK-5040,PAYLOAD,2022-10-16 14:00:01,15.73139215,0.0001026,53.2167,145.9922,97.9426,210.3741,0.00057169,0.00080171,0.0,0 STARLINK-5040,1 53914U 22119AE  22289.58334491  .00080171  00000-0  57169-3 0  9995,2 53914  53.2167 145.9922 0001026  97.9426 210.3741 15.73139215  1305,6728.068,91.537,350.624,349.24300000000005,0.0
53914.0,STARLINK-5040,PAYLOAD,2022-10-16 20:00:01,15.73205763,0.0001111,53.2164,144.756,87.1916,197.7847,-0.00047521,-0.000668,0.0,0 STARLINK-5040,1 53914U 22119AE  22289.83334491 -.00066800  00000-0 -47521-3 0  9999,2 53914  53.2164 144.7560 0001111  87.1916 197.7847 15.73205763  3878,6727.879,91.533,350.491,348.996,0.0
